{
    "links": {
        "self": "http://www.neowsapp.com/rest/v1/neo/3289053?api_key=iIulBulltgU6a56xZRHN4H3l9WmuAYTsLGpBGhQ2"
    },
    "id": "3289053",
    "neo_reference_id": "3289053",
    "name": "(2005 QG30)",
    "designation": "2005 QG30",
    "nasa_jpl_url": "http://ssd.jpl.nasa.gov/sbdb.cgi?sstr=3289053",
    "absolute_magnitude_h": 22.2,
    "estimated_diameter": {
        "kilometers": {
            "estimated_diameter_min": 0.096506147,
            "estimated_diameter_max": 0.2157943048
        },
        "meters": {
            "estimated_diameter_min": 96.5061469579,
            "estimated_diameter_max": 215.7943048444
        },
        "miles": {
            "estimated_diameter_min": 0.059966121,
            "estimated_diameter_max": 0.134088323
        },
        "feet": {
            "estimated_diameter_min": 316.6212271853,
            "estimated_diameter_max": 707.9865871058
        }
    },
    "is_potentially_hazardous_asteroid": false,
    "close_approach_data": [
        {
            "close_approach_date": "2003-07-19",
            "close_approach_date_full": "2003-Jul-19 15:16",
            "epoch_date_close_approach": 1058627760000,
            "relative_velocity": {
                "kilometers_per_second": "2.6905506164",
                "kilometers_per_hour": "9685.9822188756",
                "miles_per_hour": "6018.492673723"
            },
            "miss_distance": {
                "astronomical": "0.3293506092",
                "lunar": "128.1173869788",
                "kilometers": "49270149.619522404",
                "miles": "30615051.3347770152"
            },
            "orbiting_body": "Earth"
        },
        {
            "close_approach_date": "2005-08-31",
            "close_approach_date_full": "2005-Aug-31 23:25",
            "epoch_date_close_approach": 1125530700000,
            "relative_velocity": {
                "kilometers_per_second": "3.6291226507",
                "kilometers_per_hour": "13064.841542571",
                "miles_per_hour": "8117.9844573825"
            },
            "miss_distance": {
                "astronomical": "0.2205814939",
                "lunar": "85.8062011271",
                "kilometers": "32998521.648857993",
                "miles": "20504330.5541585834"
            },
            "orbiting_body": "Earth"
        },
        {
            "close_approach_date": "2007-10-16",
            "close_approach_date_full": "2007-Oct-16 17:28",
            "epoch_date_close_approach": 1192555680000,
            "relative_velocity": {
                "kilometers_per_second": "3.6375575655",
                "kilometers_per_hour": "13095.2072359581",
                "miles_per_hour": "8136.8525183652"
            },
            "miss_distance": {
                "astronomical": "0.4003057637",
                "lunar": "155.7189420793",
                "kilometers": "59884889.598243319",
                "miles": "37210744.9111790422"
            },
            "orbiting_body": "Earth"
        }
    ],
    "orbital_data": {
        "orbit_id": "18",
        "orbit_determination_date": "2017-04-06 09:10:37",
        "first_observation_date": "2005-08-29",
        "last_observation_date": "2005-10-22",
        "data_arc_in_days": 54,
        "observations_used": 51,
        "orbit_uncertainty": "5",
        "minimum_orbit_intersection": ".214096",
        "jupiter_tisserand_invariant": "4.409",
        "epoch_osculation": "2459000.5",
        "eccentricity": ".2125727258617189",
        "semi_major_axis": "1.553460972170494",
        "inclination": "7.037457696176198",
        "ascending_node_longitude": "341.0659660083972",
        "orbital_period": "707.2109024527897",
        "perihelion_distance": "1.223237538796416",
        "perihelion_argument": "351.21924062",
        "aphelion_distance": "1.883684405544571",
        "perihelion_time": "2459261.948325285479",
        "mean_anomaly": "226.9118409001684",
        "mean_motion": ".5090419261799093",
        "equinox": "J2000",
        "orbit_class": {
            "orbit_class_type": "AMO",
            "orbit_class_description": "Near-Earth asteroid orbits similar to that of 1221 Amor",
            "orbit_class_range": "1.017 AU < q (perihelion) < 1.3 AU"
        }
    },
    "is_sentry_object": false
}